OBJECT_NAME,OBJECT_ID,EPOCH,MEAN_MOTION,ECCENTRICITY,INCLINATION,RA_OF_ASC_NODE,ARG_OF_PERICENTER,MEAN_ANOMALY,EPHEMERIS_TYPE,CLASSIFICATION_TYPE,NORAD_CAT_ID,ELEMENT_SET_NO,REV_AT_EPOCH,BSTAR,MEAN_MOTION_DOT,MEAN_MOTION_DDOT
JUPITER 3 (ECHOSTAR 24),2023-108A,2026-07-14T10:51:29.480256,1.00272339,.00011081,0.0108,40.5711,70.6612,248.7625,0,U,57479,999,1091,0,-.157E-5,0
GALAXY 37 (G-37),2023-112A,2026-07-16T04:09:46.029888,1.00271297,.00018232,0.0184,49.9091,68.6969,110.8601,0,U,57493,999,1083,0,0,0
LUDI TANCE-4 01A,2023-120A,2026-07-16T00:03:34.436160,1.00275633,.00014535,15.0858,193.2533,16.5301,174.4684,0,U,57624,999,1083,0,-.188E-5,0
TJS-10,2023-169A,2026-07-15T18:56:28.818816,1.00273627,.000408,2.6161,80.1472,115.1904,114.7974,0,U,58204,999,982,0,-.261E-5,0
ZHONGXING-6E,2023-172A,2026-07-14T16:55:11.377920,1.00272476,.0002698,0.0192,86.2131,23.7417,191.9164,0,U,58253,999,993,0,-.37E-5,0
YAOGAN-41,2023-197A,2026-07-16T12:11:46.255200,1.00276306,.0013903,3.0762,313.6099,201.0374,85.7267,0,U,58582,999,961,0,-.37E-5,0
OVZON-3,2024-003A,2026-07-14T20:54:52.408224,1.00270475,.00003681,0.0136,108.2863,217.1758,340.6622,0,U,58698,999,772,0,.43E-6,0
INSAT-3DS,2024-033A,2026-07-16T03:46:38.668800,1.00270833,.00010892,0.0884,264.5566,224.0381,304.1257,0,U,58990,999,4735,0,-.166E-5,0
MERAH PUTIH 2,2024-035A,2026-07-14T08:16:38.659296,1.00270544,.00010623,0.0215,82.0854,34.4456,52.7926,0,U,58995,999,886,0,-.365E-5,0
TJS-11,2024-037A,2026-07-16T03:36:15.692832,1.00273247,.0001838,4.1617,327.4460,150.5911,342.5812,0,U,59020,999,887,0,-.371E-5,0
HULIANWAN GAOGUI-01 (HG-01),2024-040A,2026-07-15T13:31:44.264928,1.00274292,.0001725,0.0734,333.3745,62.7563,133.8265,0,U,59069,999,761,0,.146E-5,0
EUTELSAT 36D,2024-059A,2026-07-16T06:38:54.792384,1.00275593,.00003883,0.0244,66.9839,158.2257,204.5222,0,U,59346,999,843,0,0,0
PAKSAT-MM1,2024-104A,2026-07-13T13:38:44.797056,1.00269751,.0001963,0.0311,143.3666,313.2921,77.6097,0,U,59915,999,779,0,.15E-5,0
ASTRA 1P (SES-24),2024-115A,2026-07-13T08:25:18.669792,1.00281209,.00014971,0.0666,329.5187,236.9138,230.3347,0,U,60086,999,746,0,.118E-5,0
GOES 19,2024-119A,2026-07-16T06:07:12.830304,1.00271307,.00003914,0.0176,139.3391,63.8155,107.5396,0,U,60133,999,725,0,-.259E-5,0
ZHONGXING-3A,2024-122A,2026-07-15T18:59:06.067680,1.00270068,.0001717,0.0284,118.0048,49.1090,152.8803,0,U,60179,999,759,0,-.324E-5,0
TURKSAT 6A,2024-127A,2026-07-16T04:58:02.539776,1.00270082,.00029499,0.0179,198.1446,329.9547,242.4281,0,U,60233,999,730,0,0,0
HULIANWAN GAOGUI-02 (HG-02),2024-135A,2026-07-15T22:39:08.453376,1.00271040,.00062087,0.0466,358.0233,10.5217,58.0470,0,U,60327,999,778,0,-.185E-5,0
ZHONGXING-4A,2024-151A,2026-07-15T12:43:07.967712,1.00267142,.0000406,1.2426,270.4906,296.2264,35.6107,0,U,60606,999,703,0,-.372E-5,0
HULIANWAN GAOGUI-03 (HG-03),2024-181A,2026-07-15T19:50:46.115232,1.00270412,.00010471,0.0510,359.2926,93.7712,61.1711,0,U,61503,999,711,0,-.251E-5,0
DSN-3 (KIRAMEKI-3),2024-198A,2026-07-16T06:40:38.608896,1.00271562,.00008602,0.0180,46.5559,92.3783,39.4017,0,U,61733,999,621,0,-.261E-5,0
KOREASAT 6A,2024-206A,2026-07-16T07:01:45.101568,1.00269589,.00007505,0.0164,100.9118,353.4171,61.2357,0,U,61910,999,613,0,-.372E-5,0
OPTUS-X (ADS-01),2024-212A,2026-07-15T04:50:38.802336,1.00270006,.00023861,0.0135,63.8448,90.1044,8.1442,0,U,62006,999,604,0,-.153E-5,0
GSAT-N2 (GSAT-20),2024-214A,2026-07-16T05:05:24.334080,1.00271279,.00026432,0.0714,261.9176,144.5896,31.8179,0,U,62028,999,618,0,-.3E-6,0
SXM-9,2024-234A,2026-07-16T07:20:05.300160,1.00269438,.00048473,0.0159,347.6122,329.2208,2.1491,0,U,62259,999,586,0,-.215E-5,0
TJS-12,2024-246A,2026-07-16T14:25:38.733600,1.00268721,.0001815,0.6085,302.2718,98.4295,256.6498,0,U,62374,999,585,0,-.242E-5,0
NUVIEW ALPHA,2024-252B,2026-07-15T06:07:51.084768,1.00270943,.0000983,0.0436,27.4031,54.2618,220.2947,0,U,62455,999,410,0,-.225E-5,0
AGILA,2024-252C,2026-07-15T14:34:38.602272,1.00270462,.0001181,0.0493,128.1618,351.5480,184.5583,0,U,62456,999,544,0,-.192E-5,0
NUVIEW BRAVO,2024-252D,2026-07-15T06:07:51.084768,1.00270612,.00015028,0.0698,162.7343,343.8112,155.4099,0,U,62457,999,407,0,-.224E-5,0
THURAYA-4,2025-001A,2026-07-16T06:41:17.063808,1.00272994,.00001602,0.0230,73.8832,218.1479,146.7103,0,U,62483,999,446,0,.129E-5,0
SHIJIAN-25 (SJ-25),2025-002A,2026-07-15T19:02:20.514336,1.00263213,.0052117,5.1794,60.9819,175.4963,109.8555,0,U,62485,999,564,0,-.364E-5,0
